[{"OBJECT_NAME":"COSMOS 2530","OBJECT_ID":"2018-097A","EPOCH":"2023-06-05T04:02:33.120960","MEAN_MOTION":12.42899451,"ECCENTRICITY":0.0017999,"INCLINATION":82.5145,"RA_OF_ASC_NODE":190.0249,"ARG_OF_PERICENTER":294.9272,"MEAN_ANOMALY":64.9937,"EPHEMERIS_TYPE":0,"CLASSIFICATION_TYPE":"U","NORAD_CAT_ID":43751,"ELEMENT_SET_NO":999,"REV_AT_EPOCH":20472,"BSTAR":0.00019403,"MEAN_MOTION_DOT":3.7e-7,"MEAN_MOTION_DDOT":0},{"OBJECT_NAME":"COSMOS 2531","OBJECT_ID":"2018-097B","EPOCH":"2023-06-05T04:38:13.131456","MEAN_MOTION":12.42906742,"ECCENTRICITY":0.0015361,"INCLINATION":82.519,"RA_OF_ASC_NODE":190.6554,"ARG_OF_PERICENTER":314.3966,"MEAN_ANOMALY":45.5856,"EPHEMERIS_TYPE":0,"CLASSIFICATION_TYPE":"U","NORAD_CAT_ID":43752,"ELEMENT_SET_NO":999,"REV_AT_EPOCH":20473,"BSTAR":8.285e-5,"MEAN_MOTION_DOT":2.1e-7,"MEAN_MOTION_DDOT":0},{"OBJECT_NAME":"COSMOS 2532","OBJECT_ID":"2018-097C","EPOCH":"2023-06-05T03:19:47.898912","MEAN_MOTION":12.42907346,"ECCENTRICITY":0.0017025,"INCLINATION":82.5134,"RA_OF_ASC_NODE":189.978,"ARG_OF_PERICENTER":317.0351,"MEAN_ANOMALY":42.9399,"EPHEMERIS_TYPE":0,"CLASSIFICATION_TYPE":"U","NORAD_CAT_ID":43753,"ELEMENT_SET_NO":999,"REV_AT_EPOCH":20472,"BSTAR":0.00022068,"MEAN_MOTION_DOT":4.0e-7,"MEAN_MOTION_DDOT":0},{"OBJECT_NAME":"MINXSS-2","OBJECT_ID":"2018-099A","EPOCH":"2023-06-05T03:06:48.091392","MEAN_MOTION":15.01435376,"ECCENTRICITY":0.0017295,"INCLINATION":97.6,"RA_OF_ASC_NODE":220.4754,"ARG_OF_PERICENTER":162.3732,"MEAN_ANOMALY":197.8097,"EPHEMERIS_TYPE":0,"CLASSIFICATION_TYPE":"U","NORAD_CAT_ID":43758,"ELEMENT_SET_NO":999,"REV_AT_EPOCH":24593,"BSTAR":0.00052612,"MEAN_MOTION_DOT":6.757e-5,"MEAN_MOTION_DDOT":0},{"OBJECT_NAME":"SIRION PATHFINDER-2","OBJECT_ID":"2018-099B","EPOCH":"2023-06-04T21:42:12.020256","MEAN_MOTION":14.98658768,"ECCENTRICITY":0.0014279,"INCLINATION":97.5716,"RA_OF_ASC_NODE":217.942,"ARG_OF_PERICENTER":154.2688,"MEAN_ANOMALY":205.9248,"EPHEMERIS_TYPE":0,"CLASSIFICATION_TYPE":"U","NORAD_CAT_ID":43759,"ELEMENT_SET_NO":999,"REV_AT_EPOCH":24578,"BSTAR":0.00025618,"MEAN_MOTION_DOT":3.025e-5,"MEAN_MOTION_DDOT":0},{"OBJECT_NAME":"ELYSIUM STAR 2 & LFF","OBJECT_ID":"2018-099C","EPOCH":"2023-06-04T21:28:21.677376","MEAN_MOTION":15.06089536,"ECCENTRICITY":0.0010521,"INCLINATION":97.5671,"RA_OF_ASC_NODE":222.0185,"ARG_OF_PERICENTER":139.7838,"MEAN_ANOMALY":220.417,"EPHEMERIS_TYPE":0,"CLASSIFICATION_TYPE":"U","NORAD_CAT_ID":43760,"ELEMENT_SET_NO":999,"REV_AT_EPOCH":24600,"BSTAR":0.00078756,"MEAN_MOTION_DOT":0.0001147,"MEAN_MOTION_DDOT":0},{"OBJECT_NAME":"STPSAT-5","OBJECT_ID":"2018-099E","EPOCH":"2023-06-04T17:25:55.205760","MEAN_MOTION":14.99303949,"ECCENTRICITY":0.0015161,"INCLINATION":97.579,"RA_OF_ASC_NODE":220.0912,"ARG_OF_PERICENTER":153.8939,"MEAN_ANOMALY":206.3052,"EPHEMERIS_TYPE":0,"CLASSIFICATION_TYPE":"U","NORAD_CAT_ID":43762,"ELEMENT_SET_NO":999,"REV_AT_EPOCH":24599,"BSTAR":0.00032209,"MEAN_MOTION_DOT":3.885e-5,"MEAN_MOTION_DDOT":0},{"OBJECT_NAME":"POLAR SCOUT KODIAK","OBJECT_ID":"2018-099G","EPOCH":"2023-06-04T21:58:10.063200","MEAN_MOTION":15.0269216,"ECCENTRICITY":0.0020609,"INCLINATION":97.571,"RA_OF_ASC_NODE":222.5748,"ARG_OF_PERICENTER":151.6676,"MEAN_ANOMALY":208.5675,"EPHEMERIS_TYPE":0,"CLASSIFICATION_TYPE":"U","NORAD_CAT_ID":43764,"ELEMENT_SET_NO":999,"REV_AT_EPOCH":24604,"BSTAR":0.00048919,"MEAN_MOTION_DOT":6.5e-5,"MEAN_MOTION_DDOT":0},{"OBJECT_NAME":"HAWK-A","OBJECT_ID":"2018-099H","EPOCH":"2023-06-04T20:18:17.353152","MEAN_MOTION":14.99306368,"ECCENTRICITY":0.0015625,"INCLINATION":97.57,"RA_OF_ASC_NODE":219.4297,"ARG_OF_PERICENTER":162.1937,"MEAN_ANOMALY":197.9837,"EPHEMERIS_TYPE":0,"CLASSIFICATION_TYPE":"U","NORAD_CAT_ID":43765,"ELEMENT_SET_NO":999,"REV_AT_EPOCH":24589,"BSTAR":0.00026896,"MEAN_MOTION_DOT":3.235e-5,"MEAN_MOTION_DDOT":0},{"OBJECT_NAME":"SPAWAR-CAL-O","OBJECT_ID":"2018-099J","EPOCH":"2023-06-05T03:54:51.942816","MEAN_MOTION":14.99993731,"ECCENTRICITY":0.0012929,"INCLINATION":97.567,"RA_OF_ASC_NODE":217.3457,"ARG_OF_PERICENTER":164.2218,"MEAN_ANOMALY":195.9411,"EPHEMERIS_TYPE":0,"CLASSIFICATION_TYPE":"U","NORAD_CAT_ID":43766,"ELEMENT_SET_NO":999,"REV_AT_EPOCH":24578,"BSTAR":0.00041925,"MEAN_MOTION_DOT":5.164e-5,"MEAN_MOTION_DDOT":0},{"OBJECT_NAME":"CORVUS BC4","OBJECT_ID":"2018-099K","EPOCH":"2023-06-04T17:31:44.953824","MEAN_MOTION":14.9811225,"ECCENTRICITY":0.0011568,"INCLINATION":97.569,"RA_OF_ASC_NODE":215.7465,"ARG_OF_PERICENTER":155.0636,"MEAN_ANOMALY":205.1148,"EPHEMERIS_TYPE":0,"CLASSIFICATION_TYPE":"U","NORAD_CAT_ID":43767,"ELEMENT_SET_NO":999,"REV_AT_EPOCH":24566,"BSTAR":0.00027754,"MEAN_MOTION_DOT":3.234e-5,"MEAN_MOTION_DDOT":0},{"OBJECT_NAME":"AISTECHSAT 2","OBJECT_ID":"2018-099L","EPOCH":"2023-06-05T03:39:52.907616","MEAN_MOTION":14.98323128,"ECCENTRICITY":0.0010942,"INCLINATION":97.5671,"RA_OF_ASC_NODE":216.2248,"ARG_OF_PERICENTER":160.1755,"MEAN_ANOMALY":199.9895,"EPHEMERIS_TYPE":0,"CLASSIFICATION_TYPE":"U","NORAD_CAT_ID":43768,"ELEMENT_SET_NO":999,"REV_AT_EPOCH":24544,"BSTAR":0.00027629,"MEAN_MOTION_DOT":3.236e-5,"MEAN_MOTION_DDOT":0},{"OBJECT_NAME":"FLOCK 3S-1","OBJECT_ID":"2018-099M","EPOCH":"2023-06-05T03:36:03.807648","MEAN_MOTION":15.00511813,"ECCENTRICITY":0.0015686,"INCLINATION":97.569,"RA_OF_ASC_NODE":217.3295,"ARG_OF_PERICENTER":177.6549,"MEAN_ANOMALY":182.4752,"EPHEMERIS_TYPE":0,"CLASSIFICATION_TYPE":"U","NORAD_CAT_ID":43769,"ELEMENT_SET_NO":999,"REV_AT_EPOCH":24579,"BSTAR":0.00060769,"MEAN_MOTION_DOT":7.623e-5,"MEAN_MOTION_DDOT":0},{"OBJECT_NAME":"FOX-1CLIFF (AO-95)","OBJECT_ID":"2018-099N","EPOCH":"2023-06-04T17:58:45.302016","MEAN_MOTION":14.99719029,"ECCENTRICITY":0.0012416,"INCLINATION":97.5728,"RA_OF_ASC_NODE":217.6255,"ARG_OF_PERICENTER":172.1159,"MEAN_ANOMALY":188.0262,"EPHEMERIS_TYPE":0,"CLASSIFICATION_TYPE":"U","NORAD_CAT_ID":43770,"ELEMENT_SET_NO":999,"REV_AT_EPOCH":24574,"BSTAR":0.00031196,"MEAN_MOTION_DOT":3.799e-5,"MEAN_MOTION_DDOT":0},{"OBJECT_NAME":"RANGE-A","OBJECT_ID":"2018-099Q","EPOCH":"2023-06-04T18:26:11.581440","MEAN_MOTION":15.01417358,"ECCENTRICITY":0.0009587,"INCLINATION":97.5792,"RA_OF_ASC_NODE":220.3674,"ARG_OF_PERICENTER":133.9617,"MEAN_ANOMALY":226.24,"EPHEMERIS_TYPE":0,"CLASSIFICATION_TYPE":"U","NORAD_CAT_ID":43772,"ELEMENT_SET_NO":999,"REV_AT_EPOCH":24580,"BSTAR":0.00047983,"MEAN_MOTION_DOT":6.141e-5,"MEAN_MOTION_DDOT":0},{"OBJECT_NAME":"RANGE-B","OBJECT_ID":"2018-099R","EPOCH":"2023-06-05T02:46:06.052512","MEAN_MOTION":14.98401576,"ECCENTRICITY":0.0013972,"INCLINATION":97.5644,"RA_OF_ASC_NODE":216.0968,"ARG_OF_PERICENTER":151.2067,"MEAN_ANOMALY":208.993,"EPHEMERIS_TYPE":0,"CLASSIFICATION_TYPE":"U","NORAD_CAT_ID":43773,"ELEMENT_SET_NO":999,"REV_AT_EPOCH":24575,"BSTAR":0.00033499,"MEAN_MOTION_DOT":3.947e-5,"MEAN_MOTION_DDOT":0},{"OBJECT_NAME":"HIBER-2","OBJECT_ID":"2018-099S","EPOCH":"2023-06-04T21:45:57.364416","MEAN_MOTION":15.01988177,"ECCENTRICITY":0.001387,"INCLINATION":97.597,"RA_OF_ASC_NODE":220.1143,"ARG_OF_PERICENTER":154.3701,"MEAN_ANOMALY":205.8214,"EPHEMERIS_TYPE":0,"CLASSIFICATION_TYPE":"U","NORAD_CAT_ID":43774,"ELEMENT_SET_NO":999,"REV_AT_EPOCH":24583,"BSTAR":0.0005566,"MEAN_MOTION_DOT":7.25e-5,"MEAN_MOTION_DDOT":0},{"OBJECT_NAME":"SPAWAR-CAL-R","OBJECT_ID":"2018-099U","EPOCH":"2023-06-05T02:58:58.049472","MEAN_MOTION":14.97232525,"ECCENTRICITY":0.0014832,"INCLINATION":97.5712,"RA_OF_ASC_NODE":216.9918,"ARG_OF_PERICENTER":157.478,"MEAN_ANOMALY":202.7097,"EPHEMERIS_TYPE":0,"CLASSIFICATION_TYPE":"U","NORAD_CAT_ID":43776,"ELEMENT_SET_NO":999,"REV_AT_EPOCH":24572,"BSTAR":0.0002404,"MEAN_MOTION_DOT":2.732e-5,"MEAN_MOTION_DDOT":0},{"OBJECT_NAME":"SPAWAR-CAL-OR","OBJECT_ID":"2018-099W","EPOCH":"2023-06-04T10:01:03.714240","MEAN_MOTION":14.99581666,"ECCENTRICITY":0.0012879,"INCLINATION":97.5589,"RA_OF_ASC_NODE":215.2976,"ARG_OF_PERICENTER":169.6247,"MEAN_ANOMALY":190.5245,"EPHEMERIS_TYPE":0,"CLASSIFICATION_TYPE":"U","NORAD_CAT_ID":43778,"ELEMENT_SET_NO":999,"REV_AT_EPOCH":24528,"BSTAR":0.00033895,"MEAN_MOTION_DOT":4.119e-5,"MEAN_MOTION_DDOT":0},{"OBJECT_NAME":"MOVE-II","OBJECT_ID":"2018-099Y","EPOCH":"2023-06-04T15:49:38.929440","MEAN_MOTION":15.03502139,"ECCENTRICITY":0.000933,"INCLINATION":97.5721,"RA_OF_ASC_NODE":219.951,"ARG_OF_PERICENTER":188.9711,"MEAN_ANOMALY":171.1349,"EPHEMERIS_TYPE":0,"CLASSIFICATION_TYPE":"U","NORAD_CAT_ID":43780,"ELEMENT_SET_NO":999,"REV_AT_EPOCH":24585,"BSTAR":0.00067239,"MEAN_MOTION_DOT":9.122e-5,"MEAN_MOTION_DDOT":0},{"OBJECT_NAME":"SNUSAT-2","OBJECT_ID":"2018-099AA","EPOCH":"2023-06-04T20:19:33.754080","MEAN_MOTION":14.99613961,"ECCENTRICITY":0.0014185,"INCLINATION":97.5716,"RA_OF_ASC_NODE":218.2279,"ARG_OF_PERICENTER":149.5788,"MEAN_ANOMALY":210.6261,"EPHEMERIS_TYPE":0,"CLASSIFICATION_TYPE":"U","NORAD_CAT_ID":43782,"ELEMENT_SET_NO":999,"REV_AT_EPOCH":24578,"BSTAR":0.00038456,"MEAN_MOTION_DOT":4.687e-5,"MEAN_MOTION_DDOT":0},{"OBJECT_NAME":"KAZSTSAT","OBJECT_ID":"2018-099AB","EPOCH":"2023-06-05T02:46:35.737824","MEAN_MOTION":14.94950299,"ECCENTRICITY":0.0008283,"INCLINATION":97.5809,"RA_OF_ASC_NODE":215.5681,"ARG_OF_PERICENTER":159.4617,"MEAN_ANOMALY":200.6938,"EPHEMERIS_TYPE":0,"CLASSIFICATION_TYPE":"U","NORAD_CAT_ID":43783,"ELEMENT_SET_NO":999,"REV_AT_EPOCH":24547,"BSTAR":0.00015225,"MEAN_MOTION_DOT":1.608e-5,"MEAN_MOTION_DDOT":0},{"OBJECT_NAME":"SNUGLITE","OBJECT_ID":"2018-099AC","EPOCH":"2023-06-05T03:15:21.170880","MEAN_MOTION":15.00239202,"ECCENTRICITY":0.001128,"INCLINATION":97.5757,"RA_OF_ASC_NODE":218.1735,"ARG_OF_PERICENTER":154.4338,"MEAN_ANOMALY":205.7445,"EPHEMERIS_TYPE":0,"CLASSIFICATION_TYPE":"U","NORAD_CAT_ID":43784,"ELEMENT_SET_NO":999,"REV_AT_EPOCH":24586,"BSTAR":0.00038355,"MEAN_MOTION_DOT":4.748e-5,"MEAN_MOTION_DDOT":0},{"OBJECT_NAME":"ORBWEAVER 2","OBJECT_ID":"2018-099AD","EPOCH":"2023-06-04T21:34:59.818944","MEAN_MOTION":15.07784997,"ECCENTRICITY":0.0018392,"INCLINATION":97.5688,"RA_OF_ASC_NODE":221.656,"ARG_OF_PERICENTER":138.512,"MEAN_ANOMALY":221.7508,"EPHEMERIS_TYPE":0,"CLASSIFICATION_TYPE":"U","NORAD_CAT_ID":43785,"ELEMENT_SET_NO":999,"REV_AT_EPOCH":24560,"BSTAR":0.00096376,"MEAN_MOTION_DOT":0.00014754,"MEAN_MOTION_DDOT":0}]
